GSAT-12                 
1 37746U 11034A   21225.20049427  .00000121  00000-0  00000-0 0  9990
2 37746   0.6050  96.3488 0011030   3.7164 341.9128  1.00272175 25756
SES-3                   
1 37748U 11035A   21225.49372299 -.00000105  00000-0  00000-0 0  9993
2 37748   0.0623 288.1989 0002836 205.6862 262.9890  1.00271612 36864
KAZSAT-2                
1 37749U 11035B   21225.43729981 -.00000201  00000-0  00000-0 0  9999
2 37749   0.0273 216.2549 0001895 335.5060  14.2333  1.00270454 35656
BEIDOU 9                
1 37763U 11038A   21225.35294858 -.00000046  00000-0  00000-0 0  9996
2 37763  54.4701 181.5161 0084414 226.9740 132.8640  1.00254086 36912
ASTRA 1N                
1 37775U 11041A   21225.33829295  .00000116  00000-0  00000-0 0  9997
2 37775   0.0501 332.0982 0003864 117.7712  13.1085  1.00268722 26791
BSAT-3C (JCSAT-110R)    
1 37776U 11041B   21225.42816115 -.00000354  00000-0  00000-0 0  9990
2 37776   0.0150  80.4953 0000079 303.6261 202.0422  1.00270154 32742
PAKSAT-1R               
1 37779U 11042A   21225.39146411  .00000151  00000-0  00000-0 0  9999
2 37779   0.0639 277.4880 0004045 155.9548  67.5067  1.00270075 36742
CHINASAT 1A (ZX 1A)     
1 37804U 11047A   21225.47595851 -.00000341  00000-0  00000-0 0  9990
2 37804   0.0617 276.6479 0000715   8.9818 337.7247  1.00271789  9621
SES-2                   
1 37809U 11049A   21225.51190965 -.00000199  00000-0  00000-0 0  9990
2 37809   0.0543 282.3004 0002807 217.0155 280.1253  1.00270743 36226
ARABSAT-5C              
1 37810U 11049B   21225.33838019  .00000120  00000-0  00000-0 0  9994
2 37810   0.0574 357.9541 0006403 163.8394 301.9978  1.00269999 36324
EUTELSAT 7 WEST A       
1 37816U 11051A   21225.40479021 -.00000063  00000-0  00000-0 0  9992
2 37816   0.0616  15.4373 0004666 138.2375 306.8148  1.00270566 36167
QUETZSAT 1              
1 37826U 11054A   21225.46646800 -.00000244  00000-0  00000-0 0  9994
2 37826   0.0445 295.2628 0002936 209.3629 268.4158  1.00270522 32150
INTELSAT 18 (IS-18)     
1 37834U 11056A   21225.53166014  .00000049  00000-0  00000-0 0  9999
2 37834   0.0161  36.1350 0001994 101.3117 196.1195  1.00271078 36074
EUTELSAT 16A            
1 37836U 11057A   21225.33759507  .00000100  00000-0  00000-0 0  9993
2 37836   0.0669   0.4748 0004731 145.0291 314.0208  1.00269373 28234
VIASAT-1                
1 37843U 11059A   21225.50137596 -.00000026  00000-0  00000-0 0  9998
2 37843   0.0158 116.8935 0002433  19.1491 251.4840  1.00268783 29584
ASIASAT 7               
1 37933U 11069A   21225.09007987 -.00000337  00000-0  00000+0 0  9997
2 37933   0.0622 273.8126 0001881 188.0891 357.7520  1.00274191 35720
BEIDOU 10               
1 37948U 11073A   21225.49253167 -.00000146  00000-0  00000-0 0  9994
2 37948  50.8650 292.9457 0078027 216.0015  86.6385  1.00280755 35668
LUCH 5A                 
1 37951U 11074B   21225.64912064 -.00000051  00000-0  00000-0 0  9999
2 37951   4.2530 104.0891 0005443   3.1348 255.6827  1.00272742 35456
NIGCOMSAT 1R            
1 38014U 11077A   21225.39146411  .00000142  00000-0  00000-0 0  9990
2 38014   0.0176 118.1965 0002323 342.0019  45.2632  1.00269334 35224
FENGYUN 2F              
1 38049U 12002A   21225.57210039 -.00000362  00000-0  00000-0 0  9990
2 38049   3.0455  81.8481 0001229  33.6140 164.7254  1.00280158 35152
WGS F4 (USA 233)        
1 38070U 12003A   21225.43729981 -.00000217  00000-0  00000-0 0  9990
2 38070   0.0124 121.1017 0000523  50.0736  36.7542  1.00266399 26417
SES-4                   
1 38087U 12007A   21225.41924378 -.00000171  00000-0  00000-0 0  9996
2 38087   0.0129  33.4474 0002307 113.9536 303.5828  1.00270954 34515
BEIDOU 11               
1 38091U 12008A   21225.56145762  .00000054  00000-0  00000-0 0  9999
2 38091   1.6711  69.3364 0005915 339.4297 174.2890  1.00268898 34748
MUOS-1                  
1 38093U 12009A   21225.49602287 -.00000130  00000-0  00000-0 0  9990
2 38093   2.6550  22.6899 0052909   3.3338  14.6840  1.00273477 34713
INTELSAT 22 (IS-22)     
1 38098U 12011A   21225.44285402 -.00000062  00000-0  00000-0 0  9993
2 38098   0.0206  95.5510 0002720  50.8586  47.1975  1.00273029 34088
APSTAR 7                
1 38107U 12013A   21225.44285402 -.00000105  00000-0  00000-0 0  9994
2 38107   0.0120 123.4977 0002316   5.8164  68.7003  1.00271568 34071
YAHSAT 1B               
1 38245U 12016A   21225.20040704  .00000124  00000-0  00000-0 0  9998
2 38245   0.0138 100.0471 0001808   2.6266 338.9129  1.00267836 27858
AEHF-2 (USA 235)        
1 38254U 12019A   21225.46646800 -.00000278  00000-0  00000-0 0  9999
2 38254   2.7271  57.4342 0008349  68.9370 296.1033  1.00275030 33126
JCSAT-13                
1 38331U 12023A   21225.43095271 -.00000360  00000-0  00000-0 0  9999
2 38331   0.0133 147.5039 0002178 344.8056 108.9242  1.00271628 33799
VINASAT-2               
1 38332U 12023B   21225.43252294 -.00000332  00000-0  00000-0 0  9999
2 38332   0.0489 281.7516 0002050 217.4663 110.4051  1.00269776 28929
NIMIQ 6                 
1 38342U 12026A   21225.45982778 -.00000176  00000-0  00000-0 0  9998
2 38342   0.0487 289.2594 0002228 204.8893 262.3762  1.00272541 32687
CHINASAT 2A (ZX 2A)     
1 38352U 12028A   21225.42580578 -.00000296  00000-0  00000-0 0  9993
2 38352   0.0483 271.2105 0001515 143.9142 158.5130  1.00271709 33648
INTELSAT 19 (IS-19)     
1 38356U 12030A   21225.51112249 -.00000060  00000-0  00000-0 0  9995
2 38356   0.0117 117.7928 0002972  22.4950 171.8810  1.00269047 32700
ECHOSTAR 17             
1 38551U 12035A   21225.49019611 -.00000078  00000-0  00000-0 0  9992
2 38551   0.0184 102.8067 0002076  35.2820 253.4112  1.00270800 33323
METEOSAT-10 (MSG-3)     
1 38552U 12035B   21225.33637375  .00000060  00000-0  00000-0 0  9999
2 38552   1.2208  16.3567 0001559 119.6346 316.6129  1.00279118 33122
SES-5                   
1 38652U 12036A   21225.40813242  .00000030  00000-0  00000-0 0  9995
2 38652   0.0500 286.0565 0001970 204.5559 343.3459  1.00269599 26763
TIANLIAN 1-03           
1 38730U 12040A   21225.26677939  .00000122  00000-0  00000-0 0  9994
2 38730   1.2427  95.6517 0004389 351.3659 351.4151  1.00276509 33240
INTELSAT 20 (IS-20)     
1 38740U 12043A   21225.49166889 -.00000028  00000-0  00000-0 0  9996
2 38740   0.0198 117.3413 0001316  68.8637  21.4191  1.00271746 33014
HYLAS 2                 
1 38741U 12043B   21225.19709207  .00000151  00000-0  00000-0 0  9997
2 38741   0.0614 277.5743 0001803 209.2628 296.9960  1.00270489 33022
INTELSAT 21 (IS-21)     
1 38749U 12045A   21225.46646800 -.00000288  00000-0  00000-0 0  9998
2 38749   0.0143  97.8946 0002235  44.8937 289.2518  1.00272668 32799
ASTRA 2F                
1 38778U 12051A   21225.23158274  .00000147  00000-0  00000-0 0  9998
2 38778   0.1062 255.1988 0003543 297.6603 240.6027  1.00275946 23370
GSAT-10                 
1 38779U 12051B   21225.55077479 -.00000168  00000-0  00000-0 0  9995
2 38779   0.1237 274.1244 0001145 224.1671 105.2163  1.00271524 32372
INTELSAT 23 (IS-23)     
1 38867U 12057A   21225.46741730 -.00000288  00000-0  00000-0 0  9990
2 38867   0.0566 270.4638 0001877 235.7299 291.1870  1.00271576 32193
BEIDOU 16               
1 38953U 12059A   21225.56651730 -.00000180  00000-0  00000-0 0  9990
2 38953   1.2315  83.8295 0010839 297.3820 229.0482  1.00273680 32312
LUCH 5B                 
1 38977U 12061A   21225.40295824 -.00000138  00000-0  00000-0 0  9993
2 38977   6.6278  64.8294 0004580  59.2791 326.6846  1.00272857 32448
YAMAL 300K              
1 38978U 12061B   21225.53397020  .00000068  00000-0  00000-0 0  9990
2 38978   0.0123  89.0850 0000609 283.6011 324.6653  1.00269374 31903
STAR ONE C3             
1 38991U 12062A   21225.46646800 -.00000252  00000-0  00000-0 0  9997
2 38991   0.0036 202.6172 0002229 309.3577 263.0586  1.00270527 32021
EUTELSAT 21B            
1 38992U 12062B   21225.33855465  .00000127  00000-0  00000-0 0  9993
2 38992   0.0672   0.0041 0002338 139.9658 325.5109  1.00268788 32101
ECHOSTAR 16             
1 39008U 16039B   21225.46575983 -.00000285  00000-0  00000-0 0  9994
2 39008   0.0189 100.9448 0001939  40.4120 286.9327  1.00270209 31887
CHINASAT 12 (ZX 12)     
1 39017U 12067A   21225.43729981 -.00000210  00000-0  00000-0 0  9995
2 39017   0.0132 117.7758 0002999  26.5876  62.6289  1.00269944 31773
EUTELSAT 70B            
1 39020U 12069A   21225.49210507 -.00000046  00000-0  00000-0 0  9993
2 39020   0.0601 357.6056 0005200 181.0079  31.1488  1.00271626 31776
YAMAL 402               
1 39022U 12070A   21225.56075973  .00000082  00000-0  00000-0 0  9990
2 39022   0.0187 130.9361 0002161  14.0598  73.9820  1.00272991 31862
SKYNET 5D               
1 39034U 12075A   21225.20145387  .00000096  00000-0  00000-0 0  9991
2 39034   0.0737 354.7896 0003448 161.5246 290.8300  1.00274237 31433
MEXSAT 3                
1 39035U 12075B   21225.48441321 -.00000028  00000-0  00000-0 0  9995
2 39035   0.0166 107.2006 0002033  37.5245 236.9940  1.00268079 31443
TDRS 11                 
1 39070U 13004A   21225.53633142  .00000079  00000-0  00000-0 0  9992
2 39070   3.2602 338.5528 0005701  87.7829 274.7149  1.00265081 28964
AMAZONAS 3              
1 39078U 13006A   21225.25046626 -.00000285  00000-0  00000-0 0  9996
2 39078   0.0575 257.9497 0003725 282.2836 170.8088  1.00269482 27167
AZERSPACE 1             
1 39079U 13006B   21225.48721986  .00000130  00000-0  00000-0 0  9999
2 39079   0.0101 244.1793 0001724 276.9124  22.4424  1.00273500 31074
SBIRS GEO-2 (USA 241)   
1 39120U 13011A   21225.33855465  .00000119  00000-0  00000-0 0  9993
2 39120   1.8697   4.3198 0002337 137.2196 323.0222  1.00272395 30801
EUTELSAT 117 WEST A     
1 39122U 13012A   21225.48225647 -.00000016  00000-0  00000-0 0  9992
2 39122   0.0521 286.4620 0002791 215.4370 237.0394  1.00270672 30709
